CCSDS_OMM_VERS = 2.0
CREATION_DATE  = 
ORIGINATOR     = 

OBJECT_NAME    = STARLINK-35966
OBJECT_ID      = 2025-280A
CENTER_NAME    = EARTH
REF_FRAME      = TEME
TIME_SYSTEM    = UTC
MEAN_ELEMENT_THEORY = SGP/SGP4

EPOCH          = 2025-12-27T11:49:57.362592
MEAN_MOTION    = 15.52372791
ECCENTRICITY   = .0006581
INCLINATION    = 70.0004
RA_OF_ASC_NODE = 158.0065
ARG_OF_PERICENTER = 290.4038
MEAN_ANOMALY   = 69.6441

EPHEMERIS_TYPE = 0
CLASSIFICATION_TYPE = U
NORAD_CAT_ID   = 66821
ELEMENT_SET_NO = 999
REV_AT_EPOCH   = 522
BSTAR          = -.20586E-3
MEAN_MOTION_DOT = -.12756E-3
MEAN_MOTION_DDOT = 0

CCSDS_OMM_VERS = 2.0
CREATION_DATE  = 
ORIGINATOR     = 

OBJECT_NAME    = STARLINK-35958
OBJECT_ID      = 2025-280B
CENTER_NAME    = EARTH
REF_FRAME      = TEME
TIME_SYSTEM    = UTC
MEAN_ELEMENT_THEORY = SGP/SGP4

EPOCH          = 2025-12-27T11:49:25.986432
MEAN_MOTION    = 15.52551239
ECCENTRICITY   = .0003557
INCLINATION    = 70.0002
RA_OF_ASC_NODE = 158.0053
ARG_OF_PERICENTER = 269.6939
MEAN_ANOMALY   = 90.3840

EPHEMERIS_TYPE = 0
CLASSIFICATION_TYPE = U
NORAD_CAT_ID   = 66822
ELEMENT_SET_NO = 999
REV_AT_EPOCH   = 522
BSTAR          = .11529E-2
MEAN_MOTION_DOT = .71488E-3
MEAN_MOTION_DDOT = 0

CCSDS_OMM_VERS = 2.0
CREATION_DATE  = 
ORIGINATOR     = 

OBJECT_NAME    = STARLINK-35957
OBJECT_ID      = 2025-280C
CENTER_NAME    = EARTH
REF_FRAME      = TEME
TIME_SYSTEM    = UTC
MEAN_ELEMENT_THEORY = SGP/SGP4

EPOCH          = 2025-12-27T11:48:56.473056
MEAN_MOTION    = 15.52561587
ECCENTRICITY   = .0003259
INCLINATION    = 70.0001
RA_OF_ASC_NODE = 158.0036
ARG_OF_PERICENTER = 269.6818
MEAN_ANOMALY   = 90.3996

EPHEMERIS_TYPE = 0
CLASSIFICATION_TYPE = U
NORAD_CAT_ID   = 66823
ELEMENT_SET_NO = 999
REV_AT_EPOCH   = 522
BSTAR          = .19504E-2
MEAN_MOTION_DOT = .121865E-2
MEAN_MOTION_DDOT = 0

CCSDS_OMM_VERS = 2.0
CREATION_DATE  = 
ORIGINATOR     = 

OBJECT_NAME    = STARLINK-35896
OBJECT_ID      = 2025-280D
CENTER_NAME    = EARTH
REF_FRAME      = TEME
TIME_SYSTEM    = UTC
MEAN_ELEMENT_THEORY = SGP/SGP4

EPOCH          = 2025-12-27T11:48:26.873280
MEAN_MOTION    = 15.52564737
ECCENTRICITY   = .0003224
INCLINATION    = 70.0000
RA_OF_ASC_NODE = 158.0026
ARG_OF_PERICENTER = 270.3224
MEAN_ANOMALY   = 89.7593

EPHEMERIS_TYPE = 0
CLASSIFICATION_TYPE = U
NORAD_CAT_ID   = 66824
ELEMENT_SET_NO = 999
REV_AT_EPOCH   = 522
BSTAR          = .25451E-2
MEAN_MOTION_DOT = .159859E-2
MEAN_MOTION_DDOT = 0

CCSDS_OMM_VERS = 2.0
CREATION_DATE  = 
ORIGINATOR     = 

OBJECT_NAME    = STARLINK-35476
OBJECT_ID      = 2025-280E
CENTER_NAME    = EARTH
REF_FRAME      = TEME
TIME_SYSTEM    = UTC
MEAN_ELEMENT_THEORY = SGP/SGP4

EPOCH          = 2025-12-27T11:47:57.145632
MEAN_MOTION    = 15.52547274
ECCENTRICITY   = .0003194
INCLINATION    = 70.0002
RA_OF_ASC_NODE = 158.0010
ARG_OF_PERICENTER = 270.8101
MEAN_ANOMALY   = 89.2720

EPHEMERIS_TYPE = 0
CLASSIFICATION_TYPE = U
NORAD_CAT_ID   = 66825
ELEMENT_SET_NO = 999
REV_AT_EPOCH   = 522
BSTAR          = .12113E-2
MEAN_MOTION_DOT = .75135E-3
MEAN_MOTION_DDOT = 0

CCSDS_OMM_VERS = 2.0
CREATION_DATE  = 
ORIGINATOR     = 

OBJECT_NAME    = STARLINK-35898
OBJECT_ID      = 2025-280F
CENTER_NAME    = EARTH
REF_FRAME      = TEME
TIME_SYSTEM    = UTC
MEAN_ELEMENT_THEORY = SGP/SGP4

EPOCH          = 2025-12-27T11:47:27.777408
MEAN_MOTION    = 15.52606853
ECCENTRICITY   = .0002978
INCLINATION    = 70.0002
RA_OF_ASC_NODE = 157.9995
ARG_OF_PERICENTER = 269.7878
MEAN_ANOMALY   = 90.2968

EPHEMERIS_TYPE = 0
CLASSIFICATION_TYPE = U
NORAD_CAT_ID   = 66826
ELEMENT_SET_NO = 999
REV_AT_EPOCH   = 522
BSTAR          = .16734E-2
MEAN_MOTION_DOT = .104468E-2
MEAN_MOTION_DDOT = 0

CCSDS_OMM_VERS = 2.0
CREATION_DATE  = 
ORIGINATOR     = 

OBJECT_NAME    = STARLINK-35959
OBJECT_ID      = 2025-280G
CENTER_NAME    = EARTH
REF_FRAME      = TEME
TIME_SYSTEM    = UTC
MEAN_ELEMENT_THEORY = SGP/SGP4

EPOCH          = 2025-12-27T11:46:57.823392
MEAN_MOTION    = 15.52576460
ECCENTRICITY   = .0003425
INCLINATION    = 70.0002
RA_OF_ASC_NODE = 157.9982
ARG_OF_PERICENTER = 272.3860
MEAN_ANOMALY   = 87.6935

EPHEMERIS_TYPE = 0
CLASSIFICATION_TYPE = U
NORAD_CAT_ID   = 66827
ELEMENT_SET_NO = 999
REV_AT_EPOCH   = 522
BSTAR          = .19084E-2
MEAN_MOTION_DOT = .119266E-2
MEAN_MOTION_DDOT = 0

CCSDS_OMM_VERS = 2.0
CREATION_DATE  = 
ORIGINATOR     = 

OBJECT_NAME    = STARLINK-35982
OBJECT_ID      = 2025-280H
CENTER_NAME    = EARTH
REF_FRAME      = TEME
TIME_SYSTEM    = UTC
MEAN_ELEMENT_THEORY = SGP/SGP4

EPOCH          = 2025-12-27T04:02:05.439264
MEAN_MOTION    = 15.52538527
ECCENTRICITY   = .00031976
INCLINATION    = 70.0003
RA_OF_ASC_NODE = 158.8781
ARG_OF_PERICENTER = 275.6823
MEAN_ANOMALY   = 84.3999

EPHEMERIS_TYPE = 0
CLASSIFICATION_TYPE = U
NORAD_CAT_ID   = 66828
ELEMENT_SET_NO = 999
REV_AT_EPOCH   = 517
BSTAR          = .22656765E-2
MEAN_MOTION_DOT = .141831E-2
MEAN_MOTION_DDOT = 0

CCSDS_OMM_VERS = 2.0
CREATION_DATE  = 
ORIGINATOR     = 

OBJECT_NAME    = STARLINK-36084
OBJECT_ID      = 2025-280J
CENTER_NAME    = EARTH
REF_FRAME      = TEME
TIME_SYSTEM    = UTC
MEAN_ELEMENT_THEORY = SGP/SGP4

EPOCH          = 2025-12-26T21:51:29.345184
MEAN_MOTION    = 15.52482745
ECCENTRICITY   = .0002994
INCLINATION    = 70.0004
RA_OF_ASC_NODE = 159.5847
ARG_OF_PERICENTER = 276.2035
MEAN_ANOMALY   = 83.8810

EPHEMERIS_TYPE = 0
CLASSIFICATION_TYPE = U
NORAD_CAT_ID   = 66829
ELEMENT_SET_NO = 999
REV_AT_EPOCH   = 513
BSTAR          = .17316E-2
MEAN_MOTION_DOT = .107671E-2
MEAN_MOTION_DDOT = 0

CCSDS_OMM_VERS = 2.0
CREATION_DATE  = 
ORIGINATOR     = 

OBJECT_NAME    = STARLINK-35881
OBJECT_ID      = 2025-280K
CENTER_NAME    = EARTH
REF_FRAME      = TEME
TIME_SYSTEM    = UTC
MEAN_ELEMENT_THEORY = SGP/SGP4

EPOCH          = 2025-12-27T04:01:35.480064
MEAN_MOTION    = 15.52548077
ECCENTRICITY   = .00031547
INCLINATION    = 70.0006
RA_OF_ASC_NODE = 158.8761
ARG_OF_PERICENTER = 283.0642
MEAN_ANOMALY   = 77.0192

EPHEMERIS_TYPE = 0
CLASSIFICATION_TYPE = U
NORAD_CAT_ID   = 66830
ELEMENT_SET_NO = 999
REV_AT_EPOCH   = 517
BSTAR          = .19915234E-2
MEAN_MOTION_DOT = .124416E-2
MEAN_MOTION_DDOT = 0

CCSDS_OMM_VERS = 2.0
CREATION_DATE  = 
ORIGINATOR     = 

OBJECT_NAME    = STARLINK-35788
OBJECT_ID      = 2025-280L
CENTER_NAME    = EARTH
REF_FRAME      = TEME
TIME_SYSTEM    = UTC
MEAN_ELEMENT_THEORY = SGP/SGP4

EPOCH          = 2025-12-27T04:01:05.450880
MEAN_MOTION    = 15.52566092
ECCENTRICITY   = .00035133
INCLINATION    = 70.0002
RA_OF_ASC_NODE = 158.8757
ARG_OF_PERICENTER = 275.5341
MEAN_ANOMALY   = 84.5445

EPHEMERIS_TYPE = 0
CLASSIFICATION_TYPE = U
NORAD_CAT_ID   = 66831
ELEMENT_SET_NO = 999
REV_AT_EPOCH   = 517
BSTAR          = .22665873E-2
MEAN_MOTION_DOT = .142037E-2
MEAN_MOTION_DDOT = 0

CCSDS_OMM_VERS = 2.0
CREATION_DATE  = 
ORIGINATOR     = 

OBJECT_NAME    = STARLINK-35768
OBJECT_ID      = 2025-280M
CENTER_NAME    = EARTH
REF_FRAME      = TEME
TIME_SYSTEM    = UTC
MEAN_ELEMENT_THEORY = SGP/SGP4

EPOCH          = 2025-12-27T04:00:35.956512
MEAN_MOTION    = 15.52564307
ECCENTRICITY   = .00031357
INCLINATION    = 70.0005
RA_OF_ASC_NODE = 158.8732
ARG_OF_PERICENTER = 276.8618
MEAN_ANOMALY   = 83.2212

EPHEMERIS_TYPE = 0
CLASSIFICATION_TYPE = U
NORAD_CAT_ID   = 66832
ELEMENT_SET_NO = 999
REV_AT_EPOCH   = 517
BSTAR          = .21558069E-2
MEAN_MOTION_DOT = .134951E-2
MEAN_MOTION_DDOT = 0

