STARLINK-35966          
1 66821U 25280A   25361.49302503 -.00012756  00000+0 -20586-3 0  9999
2 66821  70.0004 158.0065 0006581 290.4038  69.6441 15.52372791  5228
STARLINK-35958          
1 66822U 25280B   25361.49266188  .00071488  00000+0  11529-2 0  9999
2 66822  70.0002 158.0053 0003557 269.6939  90.3840 15.52551239  5222
STARLINK-35957          
1 66823U 25280C   25361.49232029  .00121865  00000+0  19504-2 0  9993
2 66823  70.0001 158.0036 0003259 269.6818  90.3996 15.52561587  5227
STARLINK-35896          
1 66824U 25280D   25361.49197770  .00159859  00000+0  25451-2 0  9999
2 66824  70.0000 158.0026 0003224 270.3224  89.7593 15.52564737  5223
STARLINK-35476          
1 66825U 25280E   25361.49163363  .00075135  00000+0  12113-2 0  9996
2 66825  70.0002 158.0010 0003194 270.8101  89.2720 15.52547274  5228
STARLINK-35898          
1 66826U 25280F   25361.49129372  .00104468  00000+0  16734-2 0  9994
2 66826  70.0002 157.9995 0002978 269.7878  90.2968 15.52606853  5221
STARLINK-35959          
1 66827U 25280G   25361.49094703  .00119266  00000+0  19084-2 0  9997
2 66827  70.0002 157.9982 0003425 272.3860  87.6935 15.52576460  5221
STARLINK-35982          
1 66828U 25280H   25361.16811851  .00141831  00000+0  22657-2 0  9996
2 66828  70.0003 158.8781 0003197 275.6823  84.3999 15.52538527  5171
STARLINK-36084          
1 66829U 25280J   25360.91075631  .00107671  00000+0  17316-2 0  9997
2 66829  70.0004 159.5847 0002994 276.2035  83.8810 15.52482745  5132
STARLINK-35881          
1 66830U 25280K   25361.16777176  .00124416  00000+0  19915-2 0  9993
2 66830  70.0006 158.8761 0003154 283.0642  77.0192 15.52548077  5175
STARLINK-35788          
1 66831U 25280L   25361.16742420  .00142037  00000+0  22666-2 0  9994
2 66831  70.0002 158.8757 0003513 275.5341  84.5445 15.52566092  5179
STARLINK-35768          
1 66832U 25280M   25361.16708283  .00134951  00000+0  21558-2 0  9999
2 66832  70.0005 158.8732 0003135 276.8618  83.2212 15.52564307  5172
